{"type": "FeatureCollection", "features": [ {"type": "Feature", "properties": {"norad_id": 54234, "name": "NOAA 21 (JPSS-2)", "group": "weather", "lat": -9.479238203065131, "lon": 113.17058381036786, "alt_km": 832.2385173207795, "timestamp": "2025-12-24T11:32:59.645741+00:00", "meta": {"OBJECT_NAME": "NOAA 21 (JPSS-2)", "OBJECT_ID": "2022-150A", "EPOCH": "2025-12-24T02:12:06.698016", "MEAN_MOTION": 14.19527185, "ECCENTRICITY": 0.0001704, "INCLINATION": 98.7477, "RA_OF_ASC_NODE": 294.2591, "ARG_OF_PERICENTER": 14.8609, "MEAN_ANOMALY": 345.2617, "EPHEMERIS_TYPE": 0, "CLASSIFICATION_TYPE": "U", "NORAD_CAT_ID": 54234, "ELEMENT_SET_NO": 999, "REV_AT_EPOCH": 16170, "BSTAR": 6.8458e-05, "MEAN_MOTION_DOT": 1e-06, "MEAN_MOTION_DDOT": 0}, "tle": {"line1": "1 54234U 22150A   25358.09174419  .00000100  00000+0  68458-4 0  9991", "line2": "2 54234  98.7477 294.2591 0001704  14.8609 345.2617 14.19527185161700"}}, "geometry": {"type": "Point", "coordinates": [113.17058381036786, -9.479238203065131]}}, {"type": "Feature", "properties": {"norad_id": 54743, "name": "METEOSAT-12 (MTG-I1)", "group": "weather", "lat": -0.6302188267472432, "lon": -93.8240625275626, "alt_km": 35779.701159106364, "timestamp": "2025-12-24T11:32:59.645753+00:00", "meta": {"OBJECT_NAME": "METEOSAT-12 (MTG-I1)", "OBJECT_ID": "2022-170C", "EPOCH": "2025-12-24T00:36:38.599200", "MEAN_MOTION": 1.00270847, "ECCENTRICITY": 0.0001584, "INCLINATION": 0.6982, "RA_OF_ASC_NODE": 25.4814, "ARG_OF_PERICENTER": 240.5867, "MEAN_ANOMALY": 195.5805, "EPHEMERIS_TYPE": 0, "CLASSIFICATION_TYPE": "U", "NORAD_CAT_ID": 54743, "ELEMENT_SET_NO": 999, "REV_AT_EPOCH": 1122, "BSTAR": 0, "MEAN_MOTION_DOT": 1.3e-07, "MEAN_MOTION_DDOT": 0}, "tle": {"line1": "1 54743U 22170C   25358.02544675  .00000013  00000+0  00000+0 0  9993", "line2": "2 54743   0.6982  25.4814 0001584 240.5867 195.5805  1.00270847 11222"}}, "geometry": {"type": "Point", "coordinates": [-93.8240625275626, -0.6302188267472432]}}, {"type": "Feature", "properties": {"norad_id": 55973, "name": "TIANMU-1 03", "group": "weather", "lat": -25.033628019528688, "lon": -22.0695788428472, "alt_km": 450.7114910990367, "timestamp": "2025-12-24T11:32:59.645765+00:00", "meta": {"OBJECT_NAME": "TIANMU-1 03", "OBJECT_ID": "2023-039A", "EPOCH": "2025-12-24T04:25:47.478720", "MEAN_MOTION": 15.41249155, "ECCENTRICITY": 0.0003832, "INCLINATION": 97.5113, "RA_OF_ASC_NODE": 161.1583, "ARG_OF_PERICENTER": 27.8865, "MEAN_ANOMALY": 332.2586, "EPHEMERIS_TYPE": 0, "CLASSIFICATION_TYPE": "U", "NORAD_CAT_ID": 55973, "ELEMENT_SET_NO": 999, "REV_AT_EPOCH": 15382, "BSTAR": 0.00040397, "MEAN_MOTION_DOT": 0.00016726, "MEAN_MOTION_DDOT": 0}, "tle": {"line1": "1 55973U 23039A   25358.18457730  .00016726  00000+0  40397-3 0  9991", "line2": "2 55973  97.5113 161.1583 0003832  27.8865 332.2586 15.41249155153829"}}, "geometry": {"type": "Point", "coordinates": [-22.0695788428472, -25.033628019528688]}}, {"type": "Feature", "properties": {"norad_id": 55974, "name": "TIANMU-1 04", "group": "weather", "lat": -26.445699442574856, "lon": 164.40916809479137, "alt_km": 445.0985137199996, "timestamp": "2025-12-24T11:32:59.645781+00:00", "meta": {"OBJECT_NAME": "TIANMU-1 04", "OBJECT_ID": "2023-039B", "EPOCH": "2025-12-24T05:26:02.454720", "MEAN_MOTION": 15.4159484, "ECCENTRICITY": 0.0004444, "INCLINATION": 97.5046, "RA_OF_ASC_NODE": 160.3876, "ARG_OF_PERICENTER": 20.9104, "MEAN_ANOMALY": 339.2323, "EPHEMERIS_TYPE": 0, "CLASSIFICATION_TYPE": "U", "NORAD_CAT_ID": 55974, "ELEMENT_SET_NO": 999, "REV_AT_EPOCH": 15383, "BSTAR": 0.00042615, "MEAN_MOTION_DOT": 0.00017858, "MEAN_MOTION_DDOT": 0}, "tle": {"line1": "1 55974U 23039B   25358.22641730  .00017858  00000+0  42615-3 0  9994", "line2": "2 55974  97.5046 160.3876 0004444  20.9104 339.2323 15.41594840153832"}}, "geometry": {"type": "Point", "coordinates": [164.40916809479137, -26.445699442574856]}}, {"type": "Feature", "properties": {"norad_id": 55975, "name": "TIANMU-1 05", "group": "weather", "lat": -10.861020572423493, "lon": 162.59267772974692, "alt_km": 445.42150004669656, "timestamp": "2025-12-24T11:32:59.645799+00:00", "meta": {"OBJECT_NAME": "TIANMU-1 05", "OBJECT_ID": "2023-039C", "EPOCH": "2025-12-24T05:21:51.821280", "MEAN_MOTION": 15.41208172, "ECCENTRICITY": 0.0003989, "INCLINATION": 97.5093, "RA_OF_ASC_NODE": 160.8775, "ARG_OF_PERICENTER": 46.5481, "MEAN_ANOMALY": 313.6097, "EPHEMERIS_TYPE": 0, "CLASSIFICATION_TYPE": "U", "NORAD_CAT_ID": 55975, "ELEMENT_SET_NO": 999, "REV_AT_EPOCH": 15381, "BSTAR": 0.00041986, "MEAN_MOTION_DOT": 0.00017366, "MEAN_MOTION_DDOT": 0}, "tle": {"line1": "1 55975U 23039C   25358.22351645  .00017366  00000+0  41986-3 0  9992", "line2": "2 55975  97.5093 160.8775 0003989  46.5481 313.6097 15.41208172153815"}}, "geometry": {"type": "Point", "coordinates": [162.59267772974692, -10.861020572423493]}}, {"type": "Feature", "properties": {"norad_id": 55976, "name": "TIANMU-1 06", "group": "weather", "lat": -36.19894474581744, "lon": 167.15796065843588, "alt_km": 446.944805934153, "timestamp": "2025-12-24T11:32:59.645810+00:00", "meta": {"OBJECT_NAME": "TIANMU-1 06", "OBJECT_ID": "2023-039D", "EPOCH": "2025-12-24T05:28:37.159968", "MEAN_MOTION": 15.41645983, "ECCENTRICITY": 0.0004233, "INCLINATION": 97.5103, "RA_OF_ASC_NODE": 161.3569, "ARG_OF_PERICENTER": 40.6479, "MEAN_ANOMALY": 319.5083, "EPHEMERIS_TYPE": 0, "CLASSIFICATION_TYPE": "U", "NORAD_CAT_ID": 55976, "ELEMENT_SET_NO": 999, "REV_AT_EPOCH": 15383, "BSTAR": 0.00042254, "MEAN_MOTION_DOT": 0.00017735, "MEAN_MOTION_DDOT": 0}, "tle": {"line1": "1 55976U 23039D   25358.22820787  .00017735  00000+0  42254-3 0  9990", "line2": "2 55976  97.5103 161.3569 0004233  40.6479 319.5083 15.41645983153837"}}, "geometry": {"type": "Point", "coordinates": [167.15796065843588, -36.19894474581744]}}, {"type": "Feature", "properties": {"norad_id": 56232, "name": "FENGYUN 3G", "group": "weather", "lat": -39.53860222967154, "lon": 122.93584743727322, "alt_km": 409.4624539079932, "timestamp": "2025-12-24T11:32:59.645824+00:00", "meta": {"OBJECT_NAME": "FENGYUN 3G", "OBJECT_ID": "2023-055A", "EPOCH": "2025-12-24T00:59:27.703968", "MEAN_MOTION": 15.54299937, "ECCENTRICITY": 0.0009194, "INCLINATION": 49.9923, "RA_OF_ASC_NODE": 169.1046, "ARG_OF_PERICENTER": 199.3222, "MEAN_ANOMALY": 160.7398, "EPHEMERIS_TYPE": 0, "CLASSIFICATION_TYPE": "U", "NORAD_CAT_ID": 56232, "ELEMENT_SET_NO": 999, "REV_AT_EPOCH": 15278, "BSTAR": 0.00049893, "MEAN_MOTION_DOT": 0.00032998, "MEAN_MOTION_DDOT": 0}, "tle": {"line1": "1 56232U 23055A   25358.04129287  .00032998  00000+0  49893-3 0  9995", "line2": "2 56232  49.9923 169.1046 0009194 199.3222 160.7398 15.54299937152785"}}, "geometry": {"type": "Point", "coordinates": [122.93584743727322, -39.53860222967154]}}, {"type": "Feature", "properties": {"norad_id": 57166, "name": "METEOR-M2 3", "group": "weather", "lat": -71.97957260998825, "lon": 79.66586234473755, "alt_km": 817.4104453728978, "timestamp": "2025-12-24T11:32:59.645835+00:00", "meta": {"OBJECT_NAME": "METEOR-M2 3", "OBJECT_ID": "2023-091A", "EPOCH": "2025-12-24T05:09:07.329024", "MEAN_MOTION": 14.24027418, "ECCENTRICITY": 0.0003293, "INCLINATION": 98.6362, "RA_OF_ASC_NODE": 51.5528, "ARG_OF_PERICENTER": 333.2489, "MEAN_ANOMALY": 26.852, "EPHEMERIS_TYPE": 0, "CLASSIFICATION_TYPE": "U", "NORAD_CAT_ID": 57166, "ELEMENT_SET_NO": 999, "REV_AT_EPOCH": 12961, "BSTAR": 2.2381e-05, "MEAN_MOTION_DOT": 8e-08, "MEAN_MOTION_DDOT": 0}, "tle": {"line1": "1 57166U 23091A   25358.21466816  .00000008  00000+0  22381-4 0  9994", "line2": "2 57166  98.6362  51.5528 0003293 333.2489  26.8520 14.24027418129611"}}, "geometry": {"type": "Point", "coordinates": [79.66586234473755, -71.97957260998825]}}, {"type": "Feature", "properties": {"norad_id": 57399, "name": "TIANMU-1 07", "group": "weather", "lat": -6.888330346107468, "lon": -132.81364696615782, "alt_km": 487.5357653863921, "timestamp": "2025-12-24T11:32:59.645851+00:00", "meta": {"OBJECT_NAME": "TIANMU-1 07", "OBJECT_ID": "2023-101A", "EPOCH": "2025-12-24T04:26:58.180704", "MEAN_MOTION": 15.28229377, "ECCENTRICITY": 0.0005072, "INCLINATION": 97.2856, "RA_OF_ASC_NODE": 47.7826, "ARG_OF_PERICENTER": 52.2153, "MEAN_ANOMALY": 307.9546, "EPHEMERIS_TYPE": 0, "CLASSIFICATION_TYPE": "U", "NORAD_CAT_ID": 57399, "ELEMENT_SET_NO": 999, "REV_AT_EPOCH": 13490, "BSTAR": 0.00028478, "MEAN_MOTION_DOT": 7.764e-05, "MEAN_MOTION_DDOT": 0}, "tle": {"line1": "1 57399U 23101A   25358.18539561  .00007764  00000+0  28478-3 0  9996", "line2": "2 57399  97.2856  47.7826 0005072  52.2153 307.9546 15.28229377134905"}}, "geometry": {"type": "Point", "coordinates": [-132.81364696615782, -6.888330346107468]}}, {"type": "Feature", "properties": {"norad_id": 57400, "name": "TIANMU-1 08", "group": "weather", "lat": 7.543858228983525, "lon": 46.89731747192742, "alt_km": 479.68375845930314, "timestamp": "2025-12-24T11:32:59.645869+00:00", "meta": {"OBJECT_NAME": "TIANMU-1 08", "OBJECT_ID": "2023-101B", "EPOCH": "2025-12-24T03:39:33.734592", "MEAN_MOTION": 15.28210492, "ECCENTRICITY": 0.0007004, "INCLINATION": 97.2845, "RA_OF_ASC_NODE": 47.5465, "ARG_OF_PERICENTER": 51.655, "MEAN_ANOMALY": 308.5318, "EPHEMERIS_TYPE": 0, "CLASSIFICATION_TYPE": "U", "NORAD_CAT_ID": 57400, "ELEMENT_SET_NO": 999, "REV_AT_EPOCH": 13489, "BSTAR": 0.00028846, "MEAN_MOTION_DOT": 7.863e-05, "MEAN_MOTION_DDOT": 0}, "tle": {"line1": "1 57400U 23101B   25358.15247378  .00007863  00000+0  28846-3 0  9997", "line2": "2 57400  97.2845  47.5465 0007004  51.6550 308.5318 15.28210492134894"}}, "geometry": {"type": "Point", "coordinates": [46.89731747192742, 7.543858228983525]}}]}